H1 CPF 01  gfz 2022 11 07 13  8112 terrasarx 
H2 0702601  6201 31698    2022 11 07 12 59 42 2022 11 12 00 00 42   120 1 1  0 0 0
H9
10 0 59891  76302.000000  0    4288778.742  -5049893.872   1880578.420
10 0 59891  76422.000000  0    3954373.341  -4930941.282   2731603.843
10 0 59891  76542.000000  0    3553721.974  -4719339.931   3534528.686
10 0 59891  76662.000000  0    3095436.802  -4417716.306   4275223.057
10 0 59891  76782.000000  0    2589080.824  -4030438.015   4940665.209
10 0 59891  76902.000000  0    2044965.748  -3563546.415   5519171.087
10 0 59891  77022.000000  0    1473938.982  -3024656.735   6000597.863
10 0 59891  77142.000000  0     887164.307  -2422827.008   6376517.041
10 0 59891  77262.000000  0     295901.895  -1768400.990   6640355.593
10 0 59891  77382.000000  0    -288708.169  -1072827.317   6787504.306
10 0 59891  77502.000000  0    -855854.664   -348457.256   6815393.979
10 0 59891  77622.000000  0   -1395254.144    391675.217   6723537.191
10 0 59891  77742.000000  0   -1897336.820   1134087.456   6513536.133
10 0 59891  77862.000000  0   -2353416.159   1865092.806   6189056.373
10 0 59891  77982.000000  0   -2755839.977   2571052.211   5755766.926
10 0 59891  78102.000000  0   -3098120.547   3238629.615   5221247.456
10 0 59891  78222.000000  0   -3375042.619   3855046.334   4594862.140
10 0 59891  78342.000000  0   -3582746.215   4408330.281   3887601.223
10 0 59891  78462.000000  0   -3718782.305   4887554.671   3111891.697
10 0 59891  78582.000000  0   -3782139.878   5283060.860   2281379.456
10 0 59891  78702.000000  0   -3773243.172   5586658.487   1410686.318
10 0 59891  78822.000000  0   -3693919.289   5791798.744    515148.518
10 0 59891  78942.000000  0   -3547338.269   5893718.383   -389459.932
10 0 59891  79062.000000  0   -3337924.415   5889547.852  -1287215.356
10 0 59891  79182.000000  0   -3071241.974   5778379.777  -2162335.253
10 0 59891  79302.000000  0   -2753856.147   5561296.130  -2999464.044
10 0 59891  79422.000000  0   -2393176.919   5241356.362  -3783945.849
10 0 59891  79542.000000  0   -1997289.968   4823546.520  -4502082.577
10 0 59891  79662.000000  0   -1574777.103   4314690.454  -5141369.250
10 0 59891  79782.000000  0   -1134532.975   3723329.066  -5690704.292
10 0 59891  79902.000000  0    -685580.214   3059568.876  -6140574.393
10 0 59891  80022.000000  0    -236886.779   2334901.828  -6483208.980
10 0 59891  80142.000000  0     202809.572   1562002.720  -6712702.123
10 0 59891  80262.000000  0     625166.489    754507.986  -6825104.776
10 0 59891  80382.000000  0    1022391.482    -73221.687  -6818485.709
10 0 59891  80502.000000  0    1387382.045   -906352.224  -6692960.541
10 0 59891  80622.000000  0    1713849.006  -1729835.419  -6450688.431
10 0 59891  80742.000000  0    1996422.838  -2528673.247  -6095839.298
10 0 59891  80862.000000  0    2230741.630  -3288185.240  -5634530.889
10 0 59891  80982.000000  0    2413519.391  -3994277.636  -5074734.979
10 0 59891  81102.000000  0    2542592.796  -4633706.550  -4426148.827
10 0 59891  81222.000000  0    2616945.233  -5194328.717  -3700037.658
10 0 59891  81342.000000  0    2636707.840  -5665339.296  -2909049.304
10 0 59891  81462.000000  0    2603137.365  -6037489.761  -2067000.082
10 0 59891  81582.000000  0    2518571.231  -6303280.325  -1188636.519
10 0 59891  81702.000000  0    2386359.281  -6457121.757   -289374.827
10 0 59891  81822.000000  0    2210773.052  -6495458.855    614975.825
10 0 59891  81942.000000  0    1996896.099  -6416855.176   1508497.765
10 0 59891  82062.000000  0    1750497.872  -6222035.887   2375455.052
10 0 59891  82182.000000  0    1477892.483  -5913884.634   3200579.841
10 0 59891  82302.000000  0    1185788.473  -5497397.707   3969347.959
10 0 59891  82422.000000  0     881132.305  -4979596.173   4668238.639
10 0 59891  82542.000000  0     570949.918  -4369400.093   5284974.322
10 0 59891  82662.000000  0     262189.260  -3677465.175   5808736.385
10 0 59891  82782.000000  0     -38430.589  -2915986.144   6230351.122
10 0 59891  82902.000000  0    -324561.813  -2098473.982   6542443.410
10 0 59891  83022.000000  0    -590358.555  -1239512.530   6739558.941
10 0 59891  83142.000000  0    -830593.856   -354496.561   6818254.973
10 0 59891  83262.000000  0   -1040761.046    540645.360   6777157.453
10 0 59891  83382.000000  0   -1217157.761   1429737.524   6616983.234
10 0 59891  83502.000000  0   -1356950.802   2296648.610   6340528.152
10 0 59891  83622.000000  0   -1458221.748   3125584.077   5952621.440
10 0 59891  83742.000000  0   -1519992.628   3901375.170   5460046.113
10 0 59891  83862.000000  0   -1542230.234   4609759.544   4871426.683
10 0 59891  83982.000000  0   -1525830.375   5237650.052   4197084.461
10 0 59891  84102.000000  0   -1472581.002   5773384.661   3448860.359
10 0 59891  84222.000000  0   -1385106.081   6206951.835   2639909.536
10 0 59891  84342.000000  0   -1266791.791   6530188.024   1784469.332
10 0 59891  84462.000000  0   -1121693.038   6736940.422    897604.131
10 0 59891  84582.000000  0    -954425.335   6823189.783     -5066.089
10 0 59891  84702.000000  0    -770044.523   6787132.894   -907648.510
10 0 59891  84822.000000  0    -573916.537   6629219.629  -1794268.342
10 0 59891  84942.000000  0    -371581.748   6352141.064  -2649357.304
10 0 59891  85062.000000  0    -168617.990   5960773.566  -3457931.560
10 0 59891  85182.000000  0      29495.220   5462082.078  -4205856.023
10 0 59891  85302.000000  0     217508.355   4864984.151  -4880090.515
10 0 59891  85422.000000  0     390526.034   4180178.422  -5468912.456
10 0 59891  85542.000000  0     544120.914   3419942.339  -5962113.174
10 0 59891  85662.000000  0     674434.292   2597903.377  -6351164.801
10 0 59891  85782.000000  0     778262.037   1728790.112  -6629355.958
10 0 59891  85902.000000  0     853124.744    828168.431  -6791896.478
10 0 59891  86022.000000  0     897320.473    -87834.199  -6835991.505
10 0 59891  86142.000000  0     909959.952  -1002812.459  -6760884.206
10 0 59891  86262.000000  0     890983.166  -1900369.959  -6567865.553
10 0 59891  86382.000000  0     841158.080  -2764404.166  -6260254.371
10 0 59892    102.000000  0     762061.342  -3579389.825  -5843349.120
10 0 59892    222.000000  0     656039.752  -4330656.921  -5324345.613
10 0 59892    342.000000  0     526155.148  -5004655.118  -4712223.138
10 0 59892    462.000000  0     376112.160  -5589203.093  -4017601.034
10 0 59892    582.000000  0     210169.943  -6073717.727  -3252564.297
10 0 59892    702.000000  0      33039.823  -6449416.507  -2430460.614
10 0 59892    822.000000  0    -150229.005  -6709489.970  -1565672.100
10 0 59892    942.000000  0    -334373.537  -6849238.316   -673363.086
10 0 59892   1062.000000  0    -514047.665  -6866166.829    230789.859
10 0 59892   1182.000000  0    -683956.317  -6760038.052   1130879.459
10 0 59892   1302.000000  0    -838989.805  -6532879.873   2011055.745
10 0 59892   1422.000000  0    -974354.762  -6188947.303   2855814.806
10 0 59892   1542.000000  0   -1085697.429  -5734638.742   3650281.106
10 0 59892   1662.000000  0   -1169216.240  -5178368.333   4380475.531
10 0 59892   1782.000000  0   -1221762.492  -4530400.545   5033563.269
10 0 59892   1902.000000  0   -1240925.078  -3802652.028   5598079.756
10 0 59892   2022.000000  0   -1225098.609  -3008462.399   6064130.809
10 0 59892   2142.000000  0   -1173532.113  -2162340.093   6423560.149
10 0 59892   2262.000000  0   -1086357.962  -1279692.785   6670084.661
10 0 59892   2382.000000  0    -964602.026   -376544.507   6799399.151
10 0 59892   2502.000000  0    -810174.638    530756.560   6809246.729
10 0 59892   2622.000000  0    -625840.859   1425833.458   6699456.028
10 0 59892   2742.000000  0    -415170.641   2292575.696   6471944.088
10 0 59892   2862.000000  0    -182470.254   3115428.927   6130684.780
10 0 59892   2982.000000  0      67303.579   3879674.894   5681643.797
10 0 59892   3102.000000  0     328645.460   4571697.947   5132679.745
10 0 59892   3222.000000  0     595618.373   5179233.057   4493413.225
10 0 59892   3342.000000  0     861983.077   5691591.541   3775062.160
10 0 59892   3462.000000  0    1121335.793   6099855.688   2990249.618
10 0 59892   3582.000000  0    1367256.439   6397049.106   2152784.880
10 0 59892   3702.000000  0    1593458.200   6578263.652   1277413.490
10 0 59892   3822.000000  0    1793936.764   6640746.557    379552.135
10 0 59892   3942.000000  0    1963115.696   6583943.431   -524990.933
10 0 59892   4062.000000  0    2095983.342   6409497.489  -1420302.200
10 0 59892   4182.000000  0    2188218.622   6121205.468  -2290650.413
10 0 59892   4302.000000  0    2236302.578   5724931.177  -3120769.711
10 0 59892   4422.000000  0    2237612.762   5228478.449  -3896132.419
10 0 59892   4542.000000  0    2190497.991   4641426.337  -4603204.705
10 0 59892   4662.000000  0    2094331.577   3974932.875  -5229679.353
10 0 59892   4782.000000  0    1949543.130   3241513.495  -5764682.681
10 0 59892   4902.000000  0    1757628.357   2454798.928  -6198954.204
10 0 59892   5022.000000  0    1521136.522   1629277.329  -6524995.491
10 0 59892   5142.000000  0    1243637.595    780027.624  -6737187.962
10 0 59892   5262.000000  0     929668.605    -77553.018  -6831880.753
10 0 59892   5382.000000  0     584659.414   -928023.669  -6807446.418
10 0 59892   5502.000000  0     214840.241  -1756171.098  -6664304.219
10 0 59892   5622.000000  0    -172867.308  -2547273.603  -6404913.550
10 0 59892   5742.000000  0    -570976.104  -3287357.645  -6033738.393
10 0 59892   5862.000000  0    -971573.852  -3963442.524  -5557177.851
10 0 59892   5982.000000  0   -1366475.209  -4563767.992  -4983466.772
10 0 59892   6102.000000  0   -1747384.729  -5078003.652  -4322545.489
10 0 59892   6222.000000  0   -2106067.620  -5497434.631  -3585898.044
10 0 59892   6342.000000  0   -2434524.475  -5815118.957  -2786361.060
99
